1 29155U 06018A   12260.37827242 -.00000262  00000-0  10000-3 0  2227
2 29155 000.0732 149.2304 0003366 343.1036 284.9976 01.00269610 23169